[{"OBJECT_NAME":"ONEWEB-0624","OBJECT_ID":"2023-004AB","EPOCH":"2026-03-09T19:38:12.955200","MEAN_MOTION":13.1292383,"ECCENTRICITY":0.00016726,"INCLINATION":87.9003,"RA_OF_ASC_NODE":10.3256,"ARG_OF_PERICENTER":76.2387,"MEAN_ANOMALY":283.8927,"EPHEMERIS_TYPE":0,"CLASSIFICATION_TYPE":"U","NORAD_CAT_ID":55165,"ELEMENT_SET_NO":999,"REV_AT_EPOCH":15503,"BSTAR":0.0010511736,"MEAN_MOTION_DOT":3.94e-6,"MEAN_MOTION_DDOT":0},{"OBJECT_NAME":"DELTA 1 DEB","OBJECT_ID":"1975-052CQ","EPOCH":"2026-03-09T22:30:29.890080","MEAN_MOTION":13.28179028,"ECCENTRICITY":0.00803318,"INCLINATION":99.9046,"RA_OF_ASC_NODE":193.8236,"ARG_OF_PERICENTER":71.2084,"MEAN_ANOMALY":49.3629,"EPHEMERIS_TYPE":0,"CLASSIFICATION_TYPE":"U","NORAD_CAT_ID":21370,"ELEMENT_SET_NO":999,"REV_AT_EPOCH":68654,"BSTAR":0.00014678314,"MEAN_MOTION_DOT":2.6e-7,"MEAN_MOTION_DDOT":0}]
